0 TDRS 11
1 39070U 13004A   13281.72939264  .00000075  00000-0  00000+0 0  2347
2 39070 006.8231 331.2706 0013080 236.4526 261.2234 01.00270919  2565
0 TDRS 11
1 39070U 13004A   13282.80649550  .00000072  00000-0  00000+0 0  2351
2 39070 006.8222 331.2693 0013073 236.5468 289.9422 01.00271257  2571
0 TDRS 11
1 39070U 13004A   13284.37150194  .00000067  00000-0  00000+0 0  2361
2 39070 006.8207 331.2680 0013049 236.6532 134.7726 01.00271715  2591
0 TDRS 11
1 39070U 13004A   13287.68579413  .00000058  00000-0  00000+0 0  2378
2 39070 006.8167 331.2715 0013159 236.6851 251.1299 01.00272018  2621
0 TDRS 11
1 39070U 13004A   13289.76253453  .00000058  00000-0  00000+0 0  2383
2 39070 006.8150 331.2665 0013181 236.6525 280.8410 01.00272750  2649
0 TDRS 11
1 39070U 13004A   13290.32280432  .00000000  00000-0  10000-3 0  2397
2 39070 006.8123 331.2778 0013581 238.0832 121.6615 01.00269463905520
0 TDRS 11
1 39070U 13004A   13293.94002428  .00000069  00000-0  00000+0 0  2395
2 39070 006.8090 331.2665 0013909 240.0187 345.5323 01.00275963  2688
0 TDRS 11
1 39070U 13004A   13295.22617184  .00000072  00000-0  00000+0 0  2405
2 39070 006.8076 331.2639 0013817 240.8276 089.0236 01.00276361  2695
